{"fetched_at":"2026-03-29T16:36:15Z","count":15609,"tles":[{"name":"STARLINK-36075","line1":"1 66905U 25283AD  26087.85734044  .00016317  00000+0  56193-3 0  9998","line2":"2 66905  53.1577 295.5000 0001132  86.2489 273.8641 15.30193485 18774","category":"Starlink"}]}